DUPLEX                  
1 66906U 98067XS  26123.49262528  .00026134  00000+0  32760-3 0  9995
2 66906  51.6269 154.6093 0005576  13.7798 346.3346 15.59553817 23670
ISS OBJECT XT           
1 66907U 98067XT  26124.26620672  .01400150  12973-2  15467-2 0  9994
2 66907  51.6103 136.3394 0006778  35.5197 324.6267 16.09193601 23981
ISS OBJECT XU           
1 66908U 98067XU  26124.25038453  .01443506  14194-2  15352-2 0  9996
2 66908  51.6108 136.2247 0006728  36.3523 323.7946 16.09807506 23980
ISS OBJECT XW           
1 66910U 98067XW  26124.24429984  .00584221  15492-3  13349-2 0  9997
2 66910  51.6124 137.7137 0009094  33.7999 326.3588 15.96741824 23966
ISS OBJECT XY           
1 66912U 98067XY  26124.28342144  .00145225  00000+0  87671-3 0  9997
2 66912  51.6220 143.3392 0008107  28.9860 331.1589 15.76637903 23884
KNACKSAT-2              
1 67683U 98067XZ  26124.47714522  .00040009  00000+0  55994-3 0  9994
2 67683  51.6275 153.6873 0012747  35.8918 324.2927 15.56312178 13468
CORAL                   
1 67684U 98067YA  26124.26646354  .00095716  00000+0  96588-3 0  9998
2 67684  51.6247 152.2724 0016395  30.2839 329.9100 15.64409918 13465
GXIBA-1                 
1 67685U 98067YB  26124.44980704  .00041802  00000+0  56424-3 0  9991
2 67685  51.6272 153.5044 0014695  33.4901 326.7017 15.57233971 13467
UITMSAT-2               
1 67686U 98067YC  26124.46649611  .00057330  00000+0  71982-3 0  9992
2 67686  51.6269 152.8678 0011591  16.7038 343.4335 15.59069215 13476
HMU-SAT2                
1 67687U 98067YD  26124.39789791  .00039169  00000+0  53805-3 0  9993
2 67687  51.6283 153.9131 0010930  16.9541 343.1813 15.56850048 13372
LEOPARD                 
1 67688U 98067YE  26124.29568845  .00046949  00000+0  61083-3 0  9999
2 67688  51.6280 153.9805 0011250  15.7364 344.3976 15.58217003 13366
CREW DRAGON 12          
1 67796U 26031A   26124.45777112  .00006118  00000+0  11872-3 0  9993
2 67796  51.6305 156.5570 0007325  22.3552 337.7754 15.49089675565233
PROGRESS-MS 33          
1 68319U 26058A   26124.45777112  .00006118  00000+0  11872-3 0  9994
2 68319  51.6305 156.5570 0007325  22.3552 337.7754 15.49089675  6741
